{
  "type": "FeatureCollection",
  "features": [
    {
      "type": "Feature",
      "properties": {
        "norad_id": 43647,
        "name": "BEIDOU-3 M16 (C35)",
        "group": "gnss",
        "lat": 22.422799547778812,
        "lon": 109.3203412790404,
        "alt_km": 21538.72393163673,
        "timestamp": "2025-12-10T05:46:14.065350+00:00",
        "meta_object_name": "BEIDOU-3 M16 (C35)",
        "meta_object_id": "2018-078A",
        "meta_epoch": "2025-12-08T22:33:41.935680",
        "meta_mean_motion": 1.86232209,
        "meta_eccentricity": 0.0007116,
        "meta_inclination": 54.2656,
        "meta_ra_of_asc_node": 306.6541,
        "meta_arg_of_pericenter": 19.0293,
        "meta_mean_anomaly": 340.9862,
        "meta_ephemeris_type": 0,
        "meta_classification_type": "U",
        "meta_norad_cat_id": 43647,
        "meta_element_set_no": 999,
        "meta_rev_at_epoch": 4861,
        "meta_bstar": 0,
        "meta_mean_motion_dot": -7.5e-07,
        "meta_mean_motion_ddot": 0,
        "tle_line1": "1 43647U 18078A   25342.94006870 -.00000075  00000+0  00000+0 0  9999",
        "tle_line2": "2 43647  54.2656 306.6541 0007116  19.0293 340.9862  1.86232209 48612"
      },
      "geometry": {
        "type": "Point",
        "coordinates": [
          109.3203412790404,
          22.422799547778812
        ]
      }
    },
    {
      "type": "Feature",
      "properties": {
        "norad_id": 43648,
        "name": "BEIDOU-3 M15 (C34)",
        "group": "gnss",
        "lat": 47.493343121213975,
        "lon": -1.680671724885746,
        "alt_km": 21515.519073028947,
        "timestamp": "2025-12-10T05:46:14.065367+00:00",
        "meta_object_name": "BEIDOU-3 M15 (C34)",
        "meta_object_id": "2018-078B",
        "meta_epoch": "2025-12-09T01:39:46.541952",
        "meta_mean_motion": 1.8623188,
        "meta_eccentricity": 0.00035968,
        "meta_inclination": 54.2613,
        "meta_ra_of_asc_node": 306.6503,
        "meta_arg_of_pericenter": 17.7285,
        "meta_mean_anomaly": 342.2733,
        "meta_ephemeris_type": 0,
        "meta_classification_type": "U",
        "meta_norad_cat_id": 43648,
        "meta_element_set_no": 999,
        "meta_rev_at_epoch": 4863,
        "meta_bstar": 0,
        "meta_mean_motion_dot": -7.5e-07,
        "meta_mean_motion_ddot": 0,
        "tle_line1": "1 43648U 18078B   25343.06928868 -.00000075  00000+0  00000+0 0  9994",
        "tle_line2": "2 43648  54.2613 306.6503 0003596  17.7285 342.2733  1.86231880 48636"
      },
      "geometry": {
        "type": "Point",
        "coordinates": [
          -1.680671724885746,
          47.493343121213975
        ]
      }
    },
    {
      "type": "Feature",
      "properties": {
        "norad_id": 43683,
        "name": "BEIDOU-3 G1 (C59)",
        "group": "gnss",
        "lat": -1.023403671923866,
        "lon": -54.1560761988334,
        "alt_km": 35792.00119159512,
        "timestamp": "2025-12-10T05:46:14.065384+00:00",
        "meta_object_name": "BEIDOU-3 G1 (C59)",
        "meta_object_id": "2018-085A",
        "meta_epoch": "2025-12-09T19:22:30.059904",
        "meta_mean_motion": 1.00271807,
        "meta_eccentricity": 0.0001741,
        "meta_inclination": 2.6004,
        "meta_ra_of_asc_node": 103.0215,
        "meta_arg_of_pericenter": 61.1365,
        "meta_mean_anomaly": 345.3334,
        "meta_ephemeris_type": 0,
        "meta_classification_type": "U",
        "meta_norad_cat_id": 43683,
        "meta_element_set_no": 999,
        "meta_rev_at_epoch": 2616,
        "meta_bstar": 0,
        "meta_mean_motion_dot": -2.74e-06,
        "meta_mean_motion_ddot": 0,
        "tle_line1": "1 43683U 18085A   25343.80729236 -.00000274  00000+0  00000+0 0  9992",
        "tle_line2": "2 43683   2.6004 103.0215 0001741  61.1365 345.3334  1.00271807 26161"
      },
      "geometry": {
        "type": "Point",
        "coordinates": [
          -54.1560761988334,
          -1.023403671923866
        ]
      }
    },
    {
      "type": "Feature",
      "properties": {
        "norad_id": 43687,
        "name": "COSMOS 2529 (757)",
        "group": "gnss",
        "lat": 43.01169846394336,
        "lon": -7.730603521381626,
        "alt_km": 19135.17551607119,
        "timestamp": "2025-12-10T05:46:14.065402+00:00",
        "meta_object_name": "COSMOS 2529 (757)",
        "meta_object_id": "2018-086A",
        "meta_epoch": "2025-12-09T03:09:05.938272",
        "meta_mean_motion": 2.13101866,
        "meta_eccentricity": 0.00072944,
        "meta_inclination": 64.2918,
        "meta_ra_of_asc_node": 199.0104,
        "meta_arg_of_pericenter": 254.1951,
        "meta_mean_anomaly": 105.7985,
        "meta_ephemeris_type": 0,
        "meta_classification_type": "U",
        "meta_norad_cat_id": 43687,
        "meta_element_set_no": 999,
        "meta_rev_at_epoch": 5523,
        "meta_bstar": 0,
        "meta_mean_motion_dot": 4.4e-07,
        "meta_mean_motion_ddot": 0,
        "tle_line1": "1 43687U 18086A   25343.13131873  .00000044  00000+0  00000+0 0  9991",
        "tle_line2": "2 43687  64.2918 199.0104 0007294 254.1951 105.7985  2.13101866 55231"
      },
      "geometry": {
        "type": "Point",
        "coordinates": [
          -7.730603521381626,
          43.01169846394336
        ]
      }
    },
    {
      "type": "Feature",
      "properties": {
        "norad_id": 43706,
        "name": "BEIDOU-3 M17 (C36)",
        "group": "gnss",
        "lat": -32.19740339609783,
        "lon": 161.6496335328947,
        "alt_km": 21515.210360984205,
        "timestamp": "2025-12-10T05:46:14.065420+00:00",
        "meta_object_name": "BEIDOU-3 M17 (C36)",
        "meta_object_id": "2018-093A",
        "meta_epoch": "2025-12-07T14:48:21.849120",
        "meta_mean_motion": 1.86228285,
        "meta_eccentricity": 0.0006281,
        "meta_inclination": 54.1726,
        "meta_ra_of_asc_node": 188.7957,
        "meta_arg_of_pericenter": 306.8876,
        "meta_mean_anomaly": 53.1241,
        "meta_ephemeris_type": 0,
        "meta_classification_type": "U",
        "meta_norad_cat_id": 43706,
        "meta_element_set_no": 999,
        "meta_rev_at_epoch": 4797,
        "meta_bstar": 0,
        "meta_mean_motion_dot": 5.7e-07,
        "meta_mean_motion_ddot": 0,
        "tle_line1": "1 43706U 18093A   25341.61691955  .00000057  00000+0  00000+0 0  9998",
        "tle_line2": "2 43706  54.1726 188.7957 0006281 306.8876  53.1241  1.86228285 47972"
      },
      "geometry": {
        "type": "Point",
        "coordinates": [
          161.6496335328947,
          -32.19740339609783
        ]
      }
    },
    {
      "type": "Feature",
      "properties": {
        "norad_id": 43707,
        "name": "BEIDOU-3 M18 (C37)",
        "group": "gnss",
        "lat": 39.60510432486074,
        "lon": -134.57865033845837,
        "alt_km": 21514.893081621445,
        "timestamp": "2025-12-10T05:46:14.065439+00:00",
        "meta_object_name": "BEIDOU-3 M18 (C37)",
        "meta_object_id": "2018-093B",
        "meta_epoch": "2025-12-09T02:08:32.306784",
        "meta_mean_motion": 1.86226655,
        "meta_eccentricity": 0.00062934,
        "meta_inclination": 54.1729,
        "meta_ra_of_asc_node": 188.7377,
        "meta_arg_of_pericenter": 351.6926,
        "meta_mean_anomaly": 8.358,
        "meta_ephemeris_type": 0,
        "meta_classification_type": "U",
        "meta_norad_cat_id": 43707,
        "meta_element_set_no": 999,
        "meta_rev_at_epoch": 4799,
        "meta_bstar": 0,
        "meta_mean_motion_dot": 4.9e-07,
        "meta_mean_motion_ddot": 0,
        "tle_line1": "1 43707U 18093B   25343.08926281  .00000049  00000+0  00000+0 0  9996",
        "tle_line2": "2 43707  54.1729 188.7377 0006293 351.6926   8.3580  1.86226655 47998"
      },
      "geometry": {
        "type": "Point",
        "coordinates": [
          -134.57865033845837,
          39.60510432486074
        ]
      }
    },
    {
      "type": "Feature",
      "properties": {
        "norad_id": 43873,
        "name": "GPS BIII-1  (PRN 04)",
        "group": "gnss",
        "lat": 33.06530133373546,
        "lon": -106.85752765037668,
        "alt_km": 20123.817757711262,
        "timestamp": "2025-12-10T05:46:14.065459+00:00",
        "meta_object_name": "GPS BIII-1  (PRN 04)",
        "meta_object_id": "2018-109A",
        "meta_epoch": "2025-12-08T13:41:32.071776",
        "meta_mean_motion": 2.00553358,
        "meta_eccentricity": 0.003721,
        "meta_inclination": 55.5654,
        "meta_ra_of_asc_node": 99.7112,
        "meta_arg_of_pericenter": 194.8122,
        "meta_mean_anomaly": 178.3596,
        "meta_ephemeris_type": 0,
        "meta_classification_type": "U",
        "meta_norad_cat_id": 43873,
        "meta_element_set_no": 999,
        "meta_rev_at_epoch": 5125,
        "meta_bstar": 0,
        "meta_mean_motion_dot": 6e-08,
        "meta_mean_motion_ddot": 0,
        "tle_line1": "1 43873U 18109A   25342.57051009  .00000006  00000+0  00000+0 0  9991",
        "tle_line2": "2 43873  55.5654  99.7112 0037210 194.8122 178.3596  2.00553358 51259"
      },
      "geometry": {
        "type": "Point",
        "coordinates": [
          -106.85752765037668,
          33.06530133373546
        ]
      }
    }
  ]
}